CCSDS_OMM_VERS,COMMENT,CREATION_DATE,ORIGINATOR,OBJECT_NAME,OBJECT_ID,CENTER_NAME,REF_FRAME,TIME_SYSTEM,MEAN_ELEMENT_THEORY,EPOCH,MEAN_MOTION,ECCENTRICITY,INCLINATION,RA_OF_ASC_NODE,ARG_OF_PERICENTER,MEAN_ANOMALY,EPHEMERIS_TYPE,CLASSIFICATION_TYPE,NORAD_CAT_ID,ELEMENT_SET_NO,REV_AT_EPOCH,BSTAR,MEAN_MOTION_DOT,MEAN_MOTION_DDOT,SEMIMAJOR_AXIS,PERIOD,APOAPSIS,PERIAPSIS,OBJECT_TYPE,RCS_SIZE,COUNTRY_CODE,LAUNCH_DATE,SITE,DECAY_DATE,FILE,GP_ID,TLE_LINE0,TLE_LINE1,TLE_LINE2
2,GENERATED VIA SPACE-TRACK.ORG API,2020-05-15T19:51:30,18 SPCS,GALILEO-FM2,2011-060B,EARTH,TEME,UTC,SGP4,2020-05-15T07:39:42.213312,1.70475698,0.0005052,56.6085,42.193,331.836,206.6814,0,U,37847,999,5321,0.0,-9.9e-07,0,29600.123,844.695,23236.942,23207.034,PAYLOAD,LARGE,ESA,2011-10-21,FRGUI,,2749637,154008361,0 GALILEO-FM2,1 37847U 11060B   20136.31923858 -.00000099 +00000-0 +00000-0 0  9997,2 37847 056.6085 042.1930 0005052 331.8360 206.6814 01.70475698053211
2,GENERATED VIA SPACE-TRACK.ORG API,2020-05-16T16:51:16,18 SPCS,GALILEO-FM2,2011-060B,EARTH,TEME,UTC,SGP4,2020-05-16T11:36:44.989920,1.70475727,0.000502,56.6092,42.161,332.2195,201.0494,0,U,37847,999,5335,0.0,-9.8e-07,0,29600.12,844.695,23236.844,23207.125,PAYLOAD,LARGE,ESA,2011-10-21,FRGUI,,2750016,154076414,0 GALILEO-FM2,1 37847U 11060B   20137.48385405 -.00000098 +00000-0 +00000-0 0  9995,2 37847 056.6092 042.1610 0005020 332.2195 201.0494 01.70475727053351
2,GENERATED VIA SPACE-TRACK.ORG API,2020-05-19T01:16:54,18 SPCS,GALILEO-FM2,2011-060B,EARTH,TEME,UTC,SGP4,2020-05-18T20:18:05.734080,1.70475763,0.0004948,56.6104,42.0962,333.0056,209.9056,0,U,37847,999,5327,0.0,-9.1e-07,0,29600.115,844.694,23236.627,23207.334,PAYLOAD,LARGE,ESA,2011-10-21,FRGUI,,2751235,154205070,0 GALILEO-FM2,1 37847U 11060B   20139.84589970 -.00000091 +00000-0 +00000-0 0  9993,2 37847 056.6104 042.0962 0004948 333.0056 209.9056 01.70475763053279
2,GENERATED VIA SPACE-TRACK.ORG API,2020-05-19T07:06:10,18 SPCS,GALILEO-FM2,2011-060B,EARTH,TEME,UTC,SGP4,2020-05-18T20:18:05.734080,1.70475763,0.0004948,56.6104,42.0962,333.0056,209.9056,0,U,37847,999,5339,0.0,-9.1e-07,0,29600.115,844.694,23236.627,23207.334,PAYLOAD,LARGE,ESA,2011-10-21,FRGUI,,2751416,154215249,0 GALILEO-FM2,1 37847U 11060B   20139.84589970 -.00000091  00000-0  00000+0 0  9992,2 37847  56.6104  42.0962 0004948 333.0056 209.9056  1.70475763 53392
2,GENERATED VIA SPACE-TRACK.ORG API,2020-05-19T19:13:02,18 SPCS,GALILEO-FM2,2011-060B,EARTH,TEME,UTC,SGP4,2020-05-19T08:30:05.511744,1.70475765,0.0004938,56.6109,42.0822,333.0402,161.8456,0,U,37847,999,5328,0.0,-8.9e-07,0,29600.115,844.694,23236.597,23207.364,PAYLOAD,LARGE,ESA,2011-10-21,FRGUI,,2751701,154235277,0 GALILEO-FM2,1 37847U 11060B   20140.35423046 -.00000089 +00000-0 +00000-0 0  9999,2 37847 056.6109 042.0822 0004938 333.0402 161.8456 01.70475765053286
2,GENERATED VIA SPACE-TRACK.ORG API,2020-05-20T20:44:20,18 SPCS,GALILEO-FM2,2011-060B,EARTH,TEME,UTC,SGP4,2020-05-20T00:27:47.172672,1.70475761,0.0004918,56.6113,42.0639,333.2158,209.8361,0,U,37847,999,5329,0.0,-8.6e-07,0,29600.116,844.694,23236.538,23207.423,PAYLOAD,LARGE,ESA,2011-10-21,FRGUI,,2752372,154289858,0 GALILEO-FM2,1 37847U 11060B   20141.01929598 -.00000086 +00000-0 +00000-0 0  9993,2 37847 056.6113 042.0639 0004918 333.2158 209.8361 01.70475761053290
2,GENERATED VIA SPACE-TRACK.ORG API,2020-05-21T13:36:09,18 SPCS,GALILEO-FM2,2011-060B,EARTH,TEME,UTC,SGP4,2020-05-21T04:32:52.863072,1.70475749,0.0004887,56.6119,42.0318,333.4887,207.7452,0,U,37847,999,5343,0.0,-8.1e-07,0,29600.117,844.694,23236.448,23207.517,PAYLOAD,LARGE,ESA,2011-10-21,FRGUI,,2752708,154323613,0 GALILEO-FM2,1 37847U 11060B   20142.18950073 -.00000081  00000-0  00000+0 0  9998,2 37847  56.6119  42.0318 0004887 333.4887 207.7452  1.70475749 53436
2,GENERATED VIA SPACE-TRACK.ORG API,2020-05-26T20:07:17,18 SPCS,GALILEO-FM2,2011-060B,EARTH,TEME,UTC,SGP4,2020-05-25T21:02:13.231392,1.704756,0.0004753,56.6147,41.9029,334.5883,203.1915,0,U,37847,999,5351,0.0,-6.7e-07,0,29600.134,844.695,23236.068,23207.93,PAYLOAD,LARGE,ESA,2011-10-21,FRGUI,,2754331,154572110,0 GALILEO-FM2,1 37847U 11060B   20146.87654203 -.00000067 +00000-0 +00000-0 0  9999,2 37847 056.6147 041.9029 0004753 334.5883 203.1915 01.70475600053513
2,GENERATED VIA SPACE-TRACK.ORG API,2020-05-27T02:00:23,18 SPCS,GALILEO-FM2,2011-060B,EARTH,TEME,UTC,SGP4,2020-05-26T21:07:28.874784,1.70475562,0.0004717,56.6152,41.8753,334.8856,98.8594,0,U,37847,999,5341,0.0,-6.7e-07,0,29600.139,844.695,23235.966,23208.041,PAYLOAD,LARGE,ESA,2011-10-21,FRGUI,,2754631,154598993,0 GALILEO-FM2,1 37847U 11060B   20147.88019531 -.00000067 +00000-0 +00000-0 0  9990,2 37847 056.6152 041.8753 0004717 334.8856 098.8594 01.70475562053413
2,GENERATED VIA SPACE-TRACK.ORG API,2020-05-31T17:09:58,18 SPCS,GALILEO-FM2,2011-060B,EARTH,TEME,UTC,SGP4,2020-05-31T04:13:22.707264,1.70475453,0.0004565,56.6178,41.757,335.9752,214.1774,0,U,37847,999,5360,0.0,-8e-07,0,29600.151,844.696,23235.529,23208.504,PAYLOAD,LARGE,ESA,2011-10-21,FRGUI,,2756854,154849971,0 GALILEO-FM2,1 37847U 11060B   20152.17595726 -.00000080 +00000-0 +00000-0 0  9998,2 37847 056.6178 041.7570 0004565 335.9752 214.1774 01.70475453053608
2,GENERATED VIA SPACE-TRACK.ORG API,2020-06-02T14:36:09,18 SPCS,GALILEO-FM2,2011-060B,EARTH,TEME,UTC,SGP4,2020-06-02T09:45:52.667712,1.70475444,0.0004485,56.6192,41.6956,336.69,142.6184,0,U,37847,999,5364,0.0,-8.7e-07,0,29600.152,844.696,23235.293,23208.742,PAYLOAD,LARGE,ESA,2011-10-21,FRGUI,,2757910,154939944,0 GALILEO-FM2,1 37847U 11060B   20154.40685958 -.00000087  00000-0  00000+0 0  9999,2 37847  56.6192  41.6956 0004485 336.6900 142.6184  1.70475444 53649
2,GENERATED VIA SPACE-TRACK.ORG API,2020-06-03T01:59:31,18 SPCS,GALILEO-FM2,2011-060B,EARTH,TEME,UTC,SGP4,2020-06-02T12:15:40.483008,1.70475441,0.000448,56.6193,41.6928,336.6916,206.4596,0,U,37847,999,5352,0.0,-8.8e-07,0,29600.153,844.696,23235.279,23208.757,PAYLOAD,LARGE,ESA,2011-10-21,FRGUI,,2758247,154980569,0 GALILEO-FM2,1 37847U 11060B   20154.51088522 -.00000088 +00000-0 +00000-0 0  9997,2 37847 056.6193 041.6928 0004480 336.6916 206.4596 01.70475441053521
2,GENERATED VIA SPACE-TRACK.ORG API,2020-06-05T06:56:09,18 SPCS,GALILEO-FM2,2011-060B,EARTH,TEME,UTC,SGP4,2020-06-04T20:30:24.485184,1.70475473,0.0004386,56.6208,41.6282,337.5296,203.9207,0,U,37847,999,5368,0.0,-9.1e-07,0,29600.149,844.696,23234.997,23209.031,PAYLOAD,LARGE,ESA,2011-10-21,FRGUI,,2759720,155100078,0 GALILEO-FM2,1 37847U 11060B   20156.85445006 -.00000091  00000-0  00000+0 0  9993,2 37847  56.6208  41.6282 0004386 337.5296 203.9207  1.70475473 53680
2,GENERATED VIA SPACE-TRACK.ORG API,2020-06-05T18:39:15,18 SPCS,GALILEO-FM2,2011-060B,EARTH,TEME,UTC,SGP4,2020-06-05T11:20:29.673888,1.70475489,0.0004367,56.6211,41.6112,337.6956,223.1065,0,U,37847,999,5357,0.0,-9.2e-07,0,29600.147,844.696,23234.939,23209.086,PAYLOAD,LARGE,ESA,2011-10-21,FRGUI,,2760019,155119882,0 GALILEO-FM2,1 37847U 11060B   20157.47256567 -.00000092 +00000-0 +00000-0 0  9996,2 37847 056.6211 041.6112 0004367 337.6956 223.1065 01.70475489053570
2,GENERATED VIA SPACE-TRACK.ORG API,2020-06-08T20:16:06,18 SPCS,GALILEO-FM2,2011-060B,EARTH,TEME,UTC,SGP4,2020-06-08T07:25:08.864832,1.70475575,0.0004278,56.6229,41.5332,338.4867,163.1802,0,U,37847,999,5374,0.0,-9.6e-07,0,29600.137,844.695,23234.665,23209.339,PAYLOAD,LARGE,ESA,2011-10-21,FRGUI,,2761267,155266493,0 GALILEO-FM2,1 37847U 11060B   20160.30913038 -.00000096 +00000-0 +00000-0 0  9999,2 37847 056.6229 041.5332 0004278 338.4867 163.1802 01.70475575053740
2,GENERATED VIA SPACE-TRACK.ORG API,2020-06-10T05:01:22,18 SPCS,GALILEO-FM2,2011-060B,EARTH,TEME,UTC,SGP4,2020-06-09T12:59:47.012640,1.7047562,0.0004236,56.6236,41.4993,338.8195,199.1911,0,U,37847,999,5364,0.0,-9.7e-07,0,29600.132,844.695,23234.536,23209.458,PAYLOAD,LARGE,ESA,2011-10-21,FRGUI,,2762242,155388828,0 GALILEO-FM2,1 37847U 11060B   20161.54151635 -.00000097 +00000-0 +00000-0 0  9994,2 37847 056.6236 041.4993 0004236 338.8195 199.1911 01.70475620053642
2,GENERATED VIA SPACE-TRACK.ORG API,2020-06-12T06:36:10,18 SPCS,GALILEO-FM2,2011-060B,EARTH,TEME,UTC,SGP4,2020-06-11T21:14:29.273856,1.70475696,0.0004164,56.6251,41.4348,339.5096,196.7885,0,U,37847,999,5380,0.0,-9.7e-07,0,29600.123,844.695,23234.314,23209.663,PAYLOAD,,ESA,2011-10-21,FRGUI,,2763610,155526139,0 GALILEO-FM2,1 37847U 11060B   20163.88506104 -.00000097  00000-0  00000+0 0  9997,2 37847  56.6251  41.4348 0004164 339.5096 196.7885  1.70475696 53805
2,GENERATED VIA SPACE-TRACK.ORG API,2020-06-13T19:01:36,18 SPCS,GALILEO-FM2,2011-060B,EARTH,TEME,UTC,SGP4,2020-06-12T21:47:18.003264,1.70475722,0.0004133,56.6257,41.4067,339.756,104.2497,0,U,37847,999,5370,0.0,-9.5e-07,0,29600.12,844.695,23234.219,23209.751,PAYLOAD,LARGE,ESA,2011-10-21,FRGUI,,2764664,155602415,0 GALILEO-FM2,1 37847U 11060B   20164.90784726 -.00000095 +00000-0 +00000-0 0  9998,2 37847 056.6257 041.4067 0004133 339.7560 104.2497 01.70475722053705
2,GENERATED VIA SPACE-TRACK.ORG API,2020-06-15T15:06:09,18 SPCS,GALILEO-FM2,2011-060B,EARTH,TEME,UTC,SGP4,2020-06-15T08:33:18.588960,1.70475763,0.0004059,56.6274,41.3394,340.4032,166.3763,0,U,37847,999,5386,0.0,-8.6e-07,0,29600.115,844.694,23233.995,23209.966,PAYLOAD,LARGE,ESA,2011-10-21,FRGUI,,2765976,155700149,0 GALILEO-FM2,1 37847U 11060B   20167.35646515 -.00000086  00000-0  00000+0 0  9992,2 37847  56.6274  41.3394 0004059 340.4032 166.3763  1.70475763 53863
2,GENERATED VIA SPACE-TRACK.ORG API,2020-06-16T01:54:10,18 SPCS,GALILEO-FM2,2011-060B,EARTH,TEME,UTC,SGP4,2020-06-15T22:46:21.140256,1.70475763,0.0004033,56.6277,41.3231,340.5368,169.8066,0,U,37847,999,5375,0.0,-8.3e-07,0,29600.115,844.694,23233.918,23210.043,PAYLOAD,LARGE,ESA,2011-10-21,FRGUI,,2766273,155760190,0 GALILEO-FM2,1 37847U 11060B   20167.94885579 -.00000083 +00000-0 +00000-0 0  9990,2 37847 056.6277 041.3231 0004033 340.5368 169.8066 01.70475763053753
